ORBCOMM FM24            
1 25478U 98053D   24297.74364400  .00002716  00000+0  96004-3 0  9990
2 25478  45.0082 309.1702 0000857 273.9351  86.1399 14.36730922363420
ORBCOMM FM25            
1 25479U 98053E   24297.71189925  .00002794  00000+0  98647-3 0  9996
2 25479  45.0073 307.5736 0002074 169.4500 190.6392 14.36717659363716
ORBCOMM FM26            
1 25480U 98053F   24297.72141012  .00002365  00000+0  85494-3 0  9994
2 25480  45.0068 302.4390 0004654 181.8847 178.1984 14.35987986363641
ORBCOMM FM27            
1 25481U 98053G   24297.77086843  .00002716  00000+0  96053-3 0  9993
2 25481  45.0057 307.5505 0002347 290.1350  69.9245 14.36706383363653
ORBCOMM FM28            
1 25482U 98053H   24297.36362577  .00002621  00000+0  92233-3 0  9991
2 25482  45.0048 247.4361 0002986 214.3102 145.7553 14.37044606364276
ORBCOMM FM30            
1 25980U 99065A   24297.94563127  .00002234  00000+0  80772-3 0  9991
2 25980  45.0299 127.0684 0006033 257.3542 102.6632 14.36132474300472
ORBCOMM FM31            
1 25981U 99065B   24297.91262733  .00002304  00000+0  83235-3 0  9993
2 25981  45.0210 120.8130 0003122 276.2825  83.7667 14.36101071300020
ORBCOMM FM32            
1 25982U 99065C   24297.93949079  .00002000  00000+0  74286-3 0  9990
2 25982  45.0138 135.6587 0005090 285.1014  74.9270 14.35126215300641
